{
  "type": "FeatureCollection",
  "features": [
    {
      "type": "Feature",
      "properties": {
        "norad_id": 32376,
        "name": "COSMO-SKYMED 2",
        "group": "resource",
        "lat": 45.55511421304965,
        "lon": -13.211234467954908,
        "alt_km": 617.9113782879422,
        "timestamp": "2025-12-03T04:52:29.297983+00:00",
        "meta_object_name": "COSMO-SKYMED 2",
        "meta_object_id": "2007-059A",
        "meta_epoch": "2025-12-02T20:10:18.992640",
        "meta_mean_motion": 14.82145339,
        "meta_eccentricity": 0.0001517,
        "meta_inclination": 97.8807,
        "meta_ra_of_asc_node": 158.3132,
        "meta_arg_of_pericenter": 88.4238,
        "meta_mean_anomaly": 271.7148,
        "meta_ephemeris_type": 0,
        "meta_classification_type": "U",
        "meta_norad_cat_id": 32376,
        "meta_element_set_no": 999,
        "meta_rev_at_epoch": 97291,
        "meta_bstar": 0.000117,
        "meta_mean_motion_dot": 8.79e-06,
        "meta_mean_motion_ddot": 0,
        "tle_line1": "1 32376U 07059A   25336.84049760  .00000879  00000+0  11700-3 0  9994",
        "tle_line2": "2 32376  97.8807 158.3132 0001517  88.4238 271.7148 14.82145339972910"
      },
      "geometry": {
        "type": "Point",
        "coordinates": [
          -13.211234467954908,
          45.55511421304965
        ]
      }
    },
    {
      "type": "Feature",
      "properties": {
        "norad_id": 32382,
        "name": "RADARSAT-2",
        "group": "resource",
        "lat": 69.05503083389188,
        "lon": -41.29907007921124,
        "alt_km": 784.3246331884529,
        "timestamp": "2025-12-03T04:52:29.297993+00:00",
        "meta_object_name": "RADARSAT-2",
        "meta_object_id": "2007-061A",
        "meta_epoch": "2025-12-02T20:08:54.107232",
        "meta_mean_motion": 14.29983351,
        "meta_eccentricity": 0.0001079,
        "meta_inclination": 98.58,
        "meta_ra_of_asc_node": 341.5735,
        "meta_arg_of_pericenter": 90.8246,
        "meta_mean_anomaly": 269.306,
        "meta_ephemeris_type": 0,
        "meta_classification_type": "U",
        "meta_norad_cat_id": 32382,
        "meta_element_set_no": 999,
        "meta_rev_at_epoch": 93789,
        "meta_bstar": 6.7325e-05,
        "meta_mean_motion_dot": 1.3e-06,
        "meta_mean_motion_ddot": 0,
        "tle_line1": "1 32382U 07061A   25336.83951513  .00000130  00000+0  67325-4 0  9996",
        "tle_line2": "2 32382  98.5800 341.5735 0001079  90.8246 269.3060 14.29983351937891"
      },
      "geometry": {
        "type": "Point",
        "coordinates": [
          -41.29907007921124,
          69.05503083389188
        ]
      }
    },
    {
      "type": "Feature",
      "properties": {
        "norad_id": 32783,
        "name": "CARTOSAT-2A",
        "group": "resource",
        "lat": 24.03349218257867,
        "lon": 23.822144782352122,
        "alt_km": 623.5849110886065,
        "timestamp": "2025-12-03T04:52:29.298005+00:00",
        "meta_object_name": "CARTOSAT-2A",
        "meta_object_id": "2008-021A",
        "meta_epoch": "2025-12-02T20:38:47.753088",
        "meta_mean_motion": 14.78906019,
        "meta_eccentricity": 0.0012522,
        "meta_inclination": 97.7945,
        "meta_ra_of_asc_node": 26.9919,
        "meta_arg_of_pericenter": 35.485,
        "meta_mean_anomaly": 324.7192,
        "meta_ephemeris_type": 0,
        "meta_classification_type": "U",
        "meta_norad_cat_id": 32783,
        "meta_element_set_no": 999,
        "meta_rev_at_epoch": 94978,
        "meta_bstar": 0.00017158,
        "meta_mean_motion_dot": 1.216e-05,
        "meta_mean_motion_ddot": 0,
        "tle_line1": "1 32783U 08021A   25336.86027492  .00001216  00000+0  17158-3 0  9995",
        "tle_line2": "2 32783  97.7945  26.9919 0012522  35.4850 324.7192 14.78906019949789"
      },
      "geometry": {
        "type": "Point",
        "coordinates": [
          23.822144782352122,
          24.03349218257867
        ]
      }
    },
    {
      "type": "Feature",
      "properties": {
        "norad_id": 33320,
        "name": "HUANJING 1A (HJ-1A)",
        "group": "resource",
        "lat": 79.24284551509045,
        "lon": -169.0440076949134,
        "alt_km": 599.4017445087084,
        "timestamp": "2025-12-03T04:52:29.298021+00:00",
        "meta_object_name": "HUANJING 1A (HJ-1A)",
        "meta_object_id": "2008-041A",
        "meta_epoch": "2025-12-02T20:20:36.060576",
        "meta_mean_motion": 14.83342967,
        "meta_eccentricity": 0.0020663,
        "meta_inclination": 97.6535,
        "meta_ra_of_asc_node": 325.56,
        "meta_arg_of_pericenter": 64.9998,
        "meta_mean_anomaly": 295.336,
        "meta_ephemeris_type": 0,
        "meta_classification_type": "U",
        "meta_norad_cat_id": 33320,
        "meta_element_set_no": 999,
        "meta_rev_at_epoch": 92929,
        "meta_bstar": 0.00025105,
        "meta_mean_motion_dot": 2.013e-05,
        "meta_mean_motion_ddot": 0,
        "tle_line1": "1 33320U 08041A   25336.84763959  .00002013  00000+0  25105-3 0  9995",
        "tle_line2": "2 33320  97.6535 325.5600 0020663  64.9998 295.3360 14.83342967929297"
      },
      "geometry": {
        "type": "Point",
        "coordinates": [
          -169.0440076949134,
          79.24284551509045
        ]
      }
    },
    {
      "type": "Feature",
      "properties": {
        "norad_id": 33321,
        "name": "HUANJING 1B (HJ-1B)",
        "group": "resource",
        "lat": -22.202901321713508,
        "lon": -27.237192946135416,
        "alt_km": 642.4106778889436,
        "timestamp": "2025-12-03T04:52:29.298031+00:00",
        "meta_object_name": "HUANJING 1B (HJ-1B)",
        "meta_object_id": "2008-041B",
        "meta_epoch": "2025-12-02T20:52:41.187360",
        "meta_mean_motion": 14.82779275,
        "meta_eccentricity": 0.0038144,
        "meta_inclination": 97.6396,
        "meta_ra_of_asc_node": 329.304,
        "meta_arg_of_pericenter": 106.9623,
        "meta_mean_anomaly": 253.5777,
        "meta_ephemeris_type": 0,
        "meta_classification_type": "U",
        "meta_norad_cat_id": 33321,
        "meta_element_set_no": 999,
        "meta_rev_at_epoch": 92931,
        "meta_bstar": 0.00019707,
        "meta_mean_motion_dot": 1.562e-05,
        "meta_mean_motion_ddot": 0,
        "tle_line1": "1 33321U 08041B   25336.86992115  .00001562  00000+0  19707-3 0  9995",
        "tle_line2": "2 33321  97.6396 329.3040 0038144 106.9623 253.5777 14.82779275929314"
      },
      "geometry": {
        "type": "Point",
        "coordinates": [
          -27.237192946135416,
          -22.202901321713508
        ]
      }
    },
    {
      "type": "Feature",
      "properties": {
        "norad_id": 33331,
        "name": "GEOEYE 1",
        "group": "resource",
        "lat": -40.497194105069404,
        "lon": -138.40645454509945,
        "alt_km": 684.5668921951346,
        "timestamp": "2025-12-03T04:52:29.298042+00:00",
        "meta_object_name": "GEOEYE 1",
        "meta_object_id": "2008-042A",
        "meta_epoch": "2025-12-02T19:40:18.941088",
        "meta_mean_motion": 14.64789869,
        "meta_eccentricity": 0.0003015,
        "meta_inclination": 98.1264,
        "meta_ra_of_asc_node": 48.2238,
        "meta_arg_of_pericenter": 319.6596,
        "meta_mean_anomaly": 40.4383,
        "meta_ephemeris_type": 0,
        "meta_classification_type": "U",
        "meta_norad_cat_id": 33331,
        "meta_element_set_no": 999,
        "meta_rev_at_epoch": 92140,
        "meta_bstar": 0.00016732,
        "meta_mean_motion_dot": 8.45e-06,
        "meta_mean_motion_ddot": 0,
        "tle_line1": "1 33331U 08042A   25336.81966367  .00000845  00000+0  16732-3 0  9990",
        "tle_line2": "2 33331  98.1264  48.2238 0003015 319.6596  40.4383 14.64789869921400"
      },
      "geometry": {
        "type": "Point",
        "coordinates": [
          -138.40645454509945,
          -40.497194105069404
        ]
      }
    },
    {
      "type": "Feature",
      "properties": {
        "norad_id": 33396,
        "name": "THEOS",
        "group": "resource",
        "lat": 9.603801187996249,
        "lon": -142.9612412295851,
        "alt_km": 826.3626489299104,
        "timestamp": "2025-12-03T04:52:29.298052+00:00",
        "meta_object_name": "THEOS",
        "meta_object_id": "2008-049A",
        "meta_epoch": "2025-12-02T19:37:16.350240",
        "meta_mean_motion": 14.20092918,
        "meta_eccentricity": 0.000109,
        "meta_inclination": 98.5882,
        "meta_ra_of_asc_node": 35.1993,
        "meta_arg_of_pericenter": 100.6857,
        "meta_mean_anomaly": 259.4442,
        "meta_ephemeris_type": 0,
        "meta_classification_type": "U",
        "meta_norad_cat_id": 33396,
        "meta_element_set_no": 999,
        "meta_rev_at_epoch": 89009,
        "meta_bstar": 6.7854e-05,
        "meta_mean_motion_dot": 1.02e-06,
        "meta_mean_motion_ddot": 0,
        "tle_line1": "1 33396U 08049A   25336.81755035  .00000102  00000+0  67854-4 0  9994",
        "tle_line2": "2 33396  98.5882  35.1993 0001090 100.6857 259.4442 14.20092918890095"
      },
      "geometry": {
        "type": "Point",
        "coordinates": [
          -142.9612412295851,
          9.603801187996249
        ]
      }
    }
  ]
}